COSMOS 2400
1 27868U 03037A   20212.46407162 -.00000022  00000-0 -22406-3 0  9994
2 27868  82.4681 236.4340 0022953  75.9658 284.3973 12.45140841770353
